ONEWEB-0720             
1 55835U 23029AR  25227.43022016  .00000083  00000+0  17378-3 0  9997
2 55835  87.9248   5.7751 0001836  82.9754 277.1587 13.19724198118512
ONEWEB-0537             
1 56046U 23043A   25227.45883119  .00001138  00000+0  29434-2 0  9996
2 56046  87.9035 289.7033 0001836 103.0358 257.0978 13.16587926118731
ONEWEB-0538             
1 56047U 23043B   25227.45249455  .00000056  00000+0  11332-3 0  9993
2 56047  87.9023 289.7190 0001788  95.0439 265.0896 13.16595737118747
ONEWEB-0546             
1 56048U 23043C   25227.59181911 -.00000016  00000+0 -76239-4 0  9997
2 56048  87.9037 289.6704 0001983 117.1192 243.0142 13.16594176118759
ONEWEB-0547             
1 56049U 23043D   25227.51167879  .00000044  00000+0  75600-4 0  9997
2 56049  87.9257 304.9665 0001850  93.1213 267.0132 13.21826038117846
ONEWEB-0548             
1 56050U 23043E   25227.46516244  .00000081  00000+0  17808-3 0  9993
2 56050  87.9019 289.7236 0002508  96.2793 263.8624 13.16591981118735
ONEWEB-0549             
1 56051U 23043F   25227.50300250  .00000023  00000+0  23128-4 0  9996
2 56051  87.9259 304.9827 0001806  91.6215 268.5126 13.21825031117848
ONEWEB-0550             
1 56052U 23043G   25227.49038979  .00000131  00000+0  28530-3 0  9992
2 56052  87.9258 304.9791 0002170 100.6665 259.4713 13.21827012117845
ONEWEB-0551             
1 56053U 23043H   25227.55689527  .00000208  00000+0  51953-3 0  9991
2 56053  87.9076 320.2005 0001845  91.9140 268.2202 13.15548542116213
ONEWEB-0552             
1 56054U 23043J   25227.48407688  .00000147  00000+0  32562-3 0  9997
2 56054  87.9260 304.9892 0002162  89.9365 270.2017 13.21824433117841
ONEWEB-0553             
1 56055U 23043K   25227.59815023  .00000007  00000+0 -15009-4 0  9990
2 56055  87.9026 289.6883 0002120 107.6172 252.5191 13.16592439118769
ONEWEB-0554             
1 56056U 23043L   25227.43348267  .00000030  00000+0  44253-4 0  9993
2 56056  87.9027 289.7474 0002307  97.6060 262.5333 13.16596533118723
ONEWEB-0555             
1 56057U 23043M   25227.47149967  .00000136  00000+0  32184-3 0  9990
2 56057  87.9028 289.7081 0002110 112.8482 247.2872 13.16594417118737
ONEWEB-0557             
1 56058U 23043N   25227.40974218  .00000085  00000+0  18864-3 0  9991
2 56058  87.9023 289.7403 0003202 111.4810 248.6663 13.16595366118720
ONEWEB-0558             
1 56059U 23043P   25227.47777986  .00000102  00000+0  21462-3 0  9990
2 56059  87.9259 304.9863 0001729  87.2669 272.8663 13.21827146117858
ONEWEB-0559             
1 56060U 23043Q   25227.23964187  .00000131  00000+0  28526-3 0  9997
2 56060  87.9258 305.0256 0002088  87.3510 272.7863 13.21824682117833
ONEWEB-0566             
1 56061U 23043R   25227.46042138  .00000086  00000+0  17594-3 0  9998
2 56061  87.9258 304.9795 0001903  89.3208 270.8144 13.21824925117843
