[{"OBJECT_NAME":"ONEWEB-0720","OBJECT_ID":"2023-029AR","EPOCH":"2025-08-15T10:19:31.021824","MEAN_MOTION":13.19724198,"ECCENTRICITY":0.0001836,"INCLINATION":87.9248,"RA_OF_ASC_NODE":5.7751,"ARG_OF_PERICENTER":82.9754,"MEAN_ANOMALY":277.1587,"EPHEMERIS_TYPE":0,"CLASSIFICATION_TYPE":"U","NORAD_CAT_ID":55835,"ELEMENT_SET_NO":999,"REV_AT_EPOCH":11851,"BSTAR":0.00017378,"MEAN_MOTION_DOT":8.3e-7,"MEAN_MOTION_DDOT":0},{"OBJECT_NAME":"ONEWEB-0537","OBJECT_ID":"2023-043A","EPOCH":"2025-08-15T11:00:43.014816","MEAN_MOTION":13.16587926,"ECCENTRICITY":0.0001836,"INCLINATION":87.9035,"RA_OF_ASC_NODE":289.7033,"ARG_OF_PERICENTER":103.0358,"MEAN_ANOMALY":257.0978,"EPHEMERIS_TYPE":0,"CLASSIFICATION_TYPE":"U","NORAD_CAT_ID":56046,"ELEMENT_SET_NO":999,"REV_AT_EPOCH":11873,"BSTAR":0.0029434,"MEAN_MOTION_DOT":1.138e-5,"MEAN_MOTION_DDOT":0},{"OBJECT_NAME":"ONEWEB-0538","OBJECT_ID":"2023-043B","EPOCH":"2025-08-15T10:51:35.529120","MEAN_MOTION":13.16595737,"ECCENTRICITY":0.0001788,"INCLINATION":87.9023,"RA_OF_ASC_NODE":289.719,"ARG_OF_PERICENTER":95.0439,"MEAN_ANOMALY":265.0896,"EPHEMERIS_TYPE":0,"CLASSIFICATION_TYPE":"U","NORAD_CAT_ID":56047,"ELEMENT_SET_NO":999,"REV_AT_EPOCH":11874,"BSTAR":0.00011332,"MEAN_MOTION_DOT":5.6e-7,"MEAN_MOTION_DDOT":0},{"OBJECT_NAME":"ONEWEB-0546","OBJECT_ID":"2023-043C","EPOCH":"2025-08-15T14:12:13.171104","MEAN_MOTION":13.16594176,"ECCENTRICITY":0.0001983,"INCLINATION":87.9037,"RA_OF_ASC_NODE":289.6704,"ARG_OF_PERICENTER":117.1192,"MEAN_ANOMALY":243.0142,"EPHEMERIS_TYPE":0,"CLASSIFICATION_TYPE":"U","NORAD_CAT_ID":56048,"ELEMENT_SET_NO":999,"REV_AT_EPOCH":11875,"BSTAR":-7.6239e-5,"MEAN_MOTION_DOT":-1.6e-7,"MEAN_MOTION_DDOT":0},{"OBJECT_NAME":"ONEWEB-0547","OBJECT_ID":"2023-043D","EPOCH":"2025-08-15T12:16:49.047456","MEAN_MOTION":13.21826038,"ECCENTRICITY":0.000185,"INCLINATION":87.9257,"RA_OF_ASC_NODE":304.9665,"ARG_OF_PERICENTER":93.1213,"MEAN_ANOMALY":267.0132,"EPHEMERIS_TYPE":0,"CLASSIFICATION_TYPE":"U","NORAD_CAT_ID":56049,"ELEMENT_SET_NO":999,"REV_AT_EPOCH":11784,"BSTAR":7.56e-5,"MEAN_MOTION_DOT":4.4e-7,"MEAN_MOTION_DDOT":0},{"OBJECT_NAME":"ONEWEB-0548","OBJECT_ID":"2023-043E","EPOCH":"2025-08-15T11:09:50.034816","MEAN_MOTION":13.16591981,"ECCENTRICITY":0.0002508,"INCLINATION":87.9019,"RA_OF_ASC_NODE":289.7236,"ARG_OF_PERICENTER":96.2793,"MEAN_ANOMALY":263.8624,"EPHEMERIS_TYPE":0,"CLASSIFICATION_TYPE":"U","NORAD_CAT_ID":56050,"ELEMENT_SET_NO":999,"REV_AT_EPOCH":11873,"BSTAR":0.00017808,"MEAN_MOTION_DOT":8.1e-7,"MEAN_MOTION_DDOT":0},{"OBJECT_NAME":"ONEWEB-0549","OBJECT_ID":"2023-043F","EPOCH":"2025-08-15T12:04:19.416000","MEAN_MOTION":13.21825031,"ECCENTRICITY":0.0001806,"INCLINATION":87.9259,"RA_OF_ASC_NODE":304.9827,"ARG_OF_PERICENTER":91.6215,"MEAN_ANOMALY":268.5126,"EPHEMERIS_TYPE":0,"CLASSIFICATION_TYPE":"U","NORAD_CAT_ID":56051,"ELEMENT_SET_NO":999,"REV_AT_EPOCH":11784,"BSTAR":2.3128e-5,"MEAN_MOTION_DOT":2.3e-7,"MEAN_MOTION_DDOT":0},{"OBJECT_NAME":"ONEWEB-0550","OBJECT_ID":"2023-043G","EPOCH":"2025-08-15T11:46:09.677856","MEAN_MOTION":13.21827012,"ECCENTRICITY":0.000217,"INCLINATION":87.9258,"RA_OF_ASC_NODE":304.9791,"ARG_OF_PERICENTER":100.6665,"MEAN_ANOMALY":259.4713,"EPHEMERIS_TYPE":0,"CLASSIFICATION_TYPE":"U","NORAD_CAT_ID":56052,"ELEMENT_SET_NO":999,"REV_AT_EPOCH":11784,"BSTAR":0.0002853,"MEAN_MOTION_DOT":1.31e-6,"MEAN_MOTION_DDOT":0},{"OBJECT_NAME":"ONEWEB-0551","OBJECT_ID":"2023-043H","EPOCH":"2025-08-15T13:21:55.751328","MEAN_MOTION":13.15548542,"ECCENTRICITY":0.0001845,"INCLINATION":87.9076,"RA_OF_ASC_NODE":320.2005,"ARG_OF_PERICENTER":91.914,"MEAN_ANOMALY":268.2202,"EPHEMERIS_TYPE":0,"CLASSIFICATION_TYPE":"U","NORAD_CAT_ID":56053,"ELEMENT_SET_NO":999,"REV_AT_EPOCH":11621,"BSTAR":0.00051953,"MEAN_MOTION_DOT":2.08e-6,"MEAN_MOTION_DDOT":0},{"OBJECT_NAME":"ONEWEB-0552","OBJECT_ID":"2023-043J","EPOCH":"2025-08-15T11:37:04.242432","MEAN_MOTION":13.21824433,"ECCENTRICITY":0.0002162,"INCLINATION":87.926,"RA_OF_ASC_NODE":304.9892,"ARG_OF_PERICENTER":89.9365,"MEAN_ANOMALY":270.2017,"EPHEMERIS_TYPE":0,"CLASSIFICATION_TYPE":"U","NORAD_CAT_ID":56054,"ELEMENT_SET_NO":999,"REV_AT_EPOCH":11784,"BSTAR":0.00032562,"MEAN_MOTION_DOT":1.47e-6,"MEAN_MOTION_DDOT":0},{"OBJECT_NAME":"ONEWEB-0553","OBJECT_ID":"2023-043K","EPOCH":"2025-08-15T14:21:20.179872","MEAN_MOTION":13.16592439,"ECCENTRICITY":0.000212,"INCLINATION":87.9026,"RA_OF_ASC_NODE":289.6883,"ARG_OF_PERICENTER":107.6172,"MEAN_ANOMALY":252.5191,"EPHEMERIS_TYPE":0,"CLASSIFICATION_TYPE":"U","NORAD_CAT_ID":56055,"ELEMENT_SET_NO":999,"REV_AT_EPOCH":11876,"BSTAR":-1.5009e-5,"MEAN_MOTION_DOT":7.0e-8,"MEAN_MOTION_DDOT":0},{"OBJECT_NAME":"ONEWEB-0554","OBJECT_ID":"2023-043L","EPOCH":"2025-08-15T10:24:12.902688","MEAN_MOTION":13.16596533,"ECCENTRICITY":0.0002307,"INCLINATION":87.9027,"RA_OF_ASC_NODE":289.7474,"ARG_OF_PERICENTER":97.606,"MEAN_ANOMALY":262.5333,"EPHEMERIS_TYPE":0,"CLASSIFICATION_TYPE":"U","NORAD_CAT_ID":56056,"ELEMENT_SET_NO":999,"REV_AT_EPOCH":11872,"BSTAR":4.4253e-5,"MEAN_MOTION_DOT":3.0e-7,"MEAN_MOTION_DDOT":0},{"OBJECT_NAME":"ONEWEB-0555","OBJECT_ID":"2023-043M","EPOCH":"2025-08-15T11:18:57.571488","MEAN_MOTION":13.16594417,"ECCENTRICITY":0.000211,"INCLINATION":87.9028,"RA_OF_ASC_NODE":289.7081,"ARG_OF_PERICENTER":112.8482,"MEAN_ANOMALY":247.2872,"EPHEMERIS_TYPE":0,"CLASSIFICATION_TYPE":"U","NORAD_CAT_ID":56057,"ELEMENT_SET_NO":999,"REV_AT_EPOCH":11873,"BSTAR":0.00032184,"MEAN_MOTION_DOT":1.36e-6,"MEAN_MOTION_DDOT":0},{"OBJECT_NAME":"ONEWEB-0557","OBJECT_ID":"2023-043N","EPOCH":"2025-08-15T09:50:01.724352","MEAN_MOTION":13.16595366,"ECCENTRICITY":0.0003202,"INCLINATION":87.9023,"RA_OF_ASC_NODE":289.7403,"ARG_OF_PERICENTER":111.481,"MEAN_ANOMALY":248.6663,"EPHEMERIS_TYPE":0,"CLASSIFICATION_TYPE":"U","NORAD_CAT_ID":56058,"ELEMENT_SET_NO":999,"REV_AT_EPOCH":11872,"BSTAR":0.00018864,"MEAN_MOTION_DOT":8.5e-7,"MEAN_MOTION_DDOT":0},{"OBJECT_NAME":"ONEWEB-0558","OBJECT_ID":"2023-043P","EPOCH":"2025-08-15T11:28:00.179904","MEAN_MOTION":13.21827146,"ECCENTRICITY":0.0001729,"INCLINATION":87.9259,"RA_OF_ASC_NODE":304.9863,"ARG_OF_PERICENTER":87.2669,"MEAN_ANOMALY":272.8663,"EPHEMERIS_TYPE":0,"CLASSIFICATION_TYPE":"U","NORAD_CAT_ID":56059,"ELEMENT_SET_NO":999,"REV_AT_EPOCH":11785,"BSTAR":0.00021462,"MEAN_MOTION_DOT":1.02e-6,"MEAN_MOTION_DDOT":0},{"OBJECT_NAME":"ONEWEB-0559","OBJECT_ID":"2023-043Q","EPOCH":"2025-08-15T05:45:05.057568","MEAN_MOTION":13.21824682,"ECCENTRICITY":0.0002088,"INCLINATION":87.9258,"RA_OF_ASC_NODE":305.0256,"ARG_OF_PERICENTER":87.351,"MEAN_ANOMALY":272.7863,"EPHEMERIS_TYPE":0,"CLASSIFICATION_TYPE":"U","NORAD_CAT_ID":56060,"ELEMENT_SET_NO":999,"REV_AT_EPOCH":11783,"BSTAR":0.00028526,"MEAN_MOTION_DOT":1.31e-6,"MEAN_MOTION_DDOT":0},{"OBJECT_NAME":"ONEWEB-0566","OBJECT_ID":"2023-043R","EPOCH":"2025-08-15T11:03:00.407232","MEAN_MOTION":13.21824925,"ECCENTRICITY":0.0001903,"INCLINATION":87.9258,"RA_OF_ASC_NODE":304.9795,"ARG_OF_PERICENTER":89.3208,"MEAN_ANOMALY":270.8144,"EPHEMERIS_TYPE":0,"CLASSIFICATION_TYPE":"U","NORAD_CAT_ID":56061,"ELEMENT_SET_NO":999,"REV_AT_EPOCH":11784,"BSTAR":0.00017594,"MEAN_MOTION_DOT":8.6e-7,"MEAN_MOTION_DDOT":0}]
